     2.10           N: GPS NAV DATA                         RINEX VERSION / TYPE
teqc  2013Mar15     gpsops              20140504 00:05:22UTCPGM / RUN BY / DATE
Linux 2.4.21-27.ELsmp|Opteron|gcc -static|Linux x86_64|=+   COMMENT
MADR                                    MARKER NAME         COMMENT
13407S012                               MARKER NUMBER       COMMENT
4849202.3940 -360328.9929 4114913.1862                      COMMENT
                                                            COMMENT
This data is provided as a public service by NASA/JPL.      COMMENT
No warranty is expressed or implied regarding suitability   COMMENT
for use.  For further information, contact:                 COMMENT
Dave Stowers, NASA/JPL m/s 238-600                          COMMENT
4800 Oak Grove Drive, Pasadena CA 91109 USA                 COMMENT
                                                            END OF HEADER
 1 14  5  3  2  0  0.0 1.086434349418D-05 1.364242052659D-12 0.000000000000D+00
    5.700000000000D+01 1.421875000000D+01 4.960206612515D-09 1.264489124716D+00
    9.220093488693D-07 2.975389361382D-03 5.969777703285D-06 5.153674621582D+03
    5.256000000000D+05 5.960464477539D-08-1.196594169167D+00 6.332993507385D-08
    9.604498099269D-01 2.621562500000D+02 3.073509282970D-01-8.248200713524D-09
    8.750364487804D-11 1.000000000000D+00 1.790000000000D+03 0.000000000000D+00
    2.000000000000D+00 0.000000000000D+00 5.587935447693D-09 5.700000000000D+01
    5.184000000000D+05 4.000000000000D+00
 8 14  5  3  2  0  0.0 1.329602673650D-05 2.273736754432D-13 0.000000000000D+00
    1.030000000000D+02 2.462500000000D+01 3.960522114500D-09 9.639316295644D-02
    1.441687345505D-06 1.365308882669D-02 2.520158886909D-06 5.153476465225D+03
    5.256000000000D+05 2.086162567139D-07 2.062872681487D+00 1.285225152969D-07
    9.965957683054D-01 3.499062500000D+02-2.779468439788D+00-8.206413258623D-09
    1.935794919343D-10 1.000000000000D+00 1.790000000000D+03 0.000000000000D+00
    4.000000000000D+00 0.000000000000D+00-4.190951585770D-09 1.030000000000D+02
    5.184000000000D+05 4.000000000000D+00
19 14  5  3  2  0  0.0-4.545995034277D-04-2.273736754432D-12 0.000000000000D+00
    7.700000000000D+01-2.625000000000D+01 4.348752571572D-09 2.607544784215D+00
   -1.396983861923D-06 1.026795420330D-02 1.027807593346D-05 5.153612600327D+03
    5.256000000000D+05-1.732259988785D-07-2.155386615795D+00-1.322478055954D-07
    9.655028225994D-01 1.850625000000D+02 4.208990542379D-01-7.678176969747D-09
    3.768014095769D-10 1.000000000000D+00 1.790000000000D+03 0.000000000000D+00
    2.000000000000D+00 0.000000000000D+00-1.490116119385D-08 7.700000000000D+01
    5.184000000000D+05 4.000000000000D+00
22 14  5  3  1 59 44.0 2.312702126801D-04 2.955857780762D-12 0.000000000000D+00
    2.100000000000D+01-1.575000000000D+01 5.355223066536D-09-1.850714208578D+00
   -8.996576070786D-07 7.146196672693D-03 7.554888725281D-06 5.153722173691D+03
    5.255840000000D+05 1.732259988785D-07-1.608224363171D-01-8.568167686462D-08
    9.240030960721D-01 2.151562500000D+02-2.062194133269D+00-8.266058600234D-09
   -5.260933424708D-10 1.000000000000D+00 1.790000000000D+03 0.000000000000D+00
    2.000000000000D+00 0.000000000000D+00-1.722946763039D-08 2.100000000000D+01
    5.184000000000D+05 4.000000000000D+00
27 14  5  3  2  0  0.0-1.797080039978D-05 1.364242052659D-12 0.000000000000D+00
    4.300000000000D+01-3.181250000000D+01 4.385896975928D-09-2.790865029519D+00
   -1.663342118263D-06 1.183581771329D-03 1.025572419167D-05 5.153677789688D+03
    5.256000000000D+05-3.352761268616D-08-2.251655543360D+00-2.048909664154D-08
    9.631817948107D-01 1.848750000000D+02 1.001756751647D-01-7.808896700463D-09
    3.135844906242D-10 1.000000000000D+00 1.790000000000D+03 0.000000000000D+00
    2.000000000000D+00 0.000000000000D+00 1.862645149231D-09 4.300000000000D+01
    5.184000000000D+05 4.000000000000D+00
32 14  5  3  2  0  0.0-4.371125251055D-04 7.958078640513D-12 0.000000000000D+00
    8.800000000000D+01-1.028125000000D+01 4.788056584633D-09 1.210483401607D+00
   -4.805624485016D-07 1.140146225225D-02 8.322298526764D-06 5.153749929428D+03
    5.256000000000D+05 7.264316082001D-08-6.923021500777D-02 2.365559339523D-07
    9.482027688628D-01 2.106875000000D+02-1.633055027640D-01-8.066050269084D-09
   -6.125255141463D-10 1.000000000000D+00 1.790000000000D+03 0.000000000000D+00
    2.000000000000D+00 0.000000000000D+00-3.259629011154D-09 8.800000000000D+01
    5.184000000000D+05 4.000000000000D+00
11 14  5  3  2  0  0.0-4.857098683715D-04-3.183231456205D-12 0.000000000000D+00
    8.500000000000D+01 2.193750000000D+01 6.612775448641D-09 8.037824003519D-01
    1.274049282074D-06 1.489274040796D-02 7.232651114464D-06 5.153697206497D+03
    5.256000000000D+05-2.384185791016D-07-1.518905453652D+00 5.960464477539D-08
    8.900457596927D-01 2.066875000000D+02 1.279961961588D+00-9.252885419818D-09
    2.346526313668D-10 1.000000000000D+00 1.790000000000D+03 0.000000000000D+00
    2.800000000000D+00 0.000000000000D+00-1.210719347000D-08 8.500000000000D+01
    5.184300000000D+05 4.000000000000D+00
20 14  5  3  2  0  0.0 1.855771988630D-04 3.751665644813D-12 0.000000000000D+00
    1.010000000000D+02-1.468750000000D+01 5.432726294857D-09-7.664631333974D-01
   -7.953494787216D-07 5.792621755973D-03 7.582828402519D-06 5.153802717209D+03
    5.256000000000D+05-9.499490261078D-08-2.158392464795D-01 7.264316082001D-08
    9.271766027985D-01 2.140625000000D+02 1.334124610457D+00-8.531783954476D-09
   -5.318078662180D-10 1.000000000000D+00 1.790000000000D+03 0.000000000000D+00
    2.000000000000D+00 0.000000000000D+00-8.381903171539D-09 1.010000000000D+02
    5.184300000000D+05 4.000000000000D+00
 3 14  5  3  2  0  0.0 3.596623428166D-04 5.002220859751D-12 0.000000000000D+00
    5.300000000000D+01-5.543750000000D+01 4.859488131472D-09 2.020057469765D+00
   -3.097578883171D-06 1.692045573145D-02 9.860843420029D-06 5.153794692993D+03
    5.256000000000D+05 1.452863216400D-07-2.400218300464D+00-3.501772880554D-07
    9.381977214381D-01 1.767500000000D+02 1.377850204877D+00-7.899614764949D-09
    2.503675716715D-10 1.000000000000D+00 1.790000000000D+03 0.000000000000D+00
    2.800000000000D+00 0.000000000000D+00-4.656612873077D-09 5.300000000000D+01
    5.184300000000D+05 4.000000000000D+00
14 14  5  3  2  0  0.0 1.763389445841D-04-3.410605131648D-12 0.000000000000D+00
    3.700000000000D+01 8.706250000000D+01 3.848374585963D-09-2.971367500035D+00
    4.561617970467D-06 7.417809683830D-03 9.628012776375D-06 5.153658214569D+03
    5.256000000000D+05-5.587935447693D-09 9.672653872630D-01-1.490116119385D-08
    9.705351525362D-01 1.975625000000D+02-2.001796591915D+00-7.571029649489D-09
    7.964617472573D-11 1.000000000000D+00 1.790000000000D+03 0.000000000000D+00
    2.000000000000D+00 0.000000000000D+00-9.313225746155D-09 3.700000000000D+01
    5.184300000000D+05 4.000000000000D+00
16 14  5  3  1 59 44.0-2.203574404120D-04 1.818989403546D-12 0.000000000000D+00
    1.600000000000D+01-9.825000000000D+01 3.943021385525D-09-1.954650013305D+00
   -5.418434739113D-06 7.749435491860D-03 6.377696990967D-06 5.153586030960D+03
    5.255840000000D+05 4.842877388000D-08 3.045171648376D+00-1.750886440277D-07
    9.882533082599D-01 2.711250000000D+02 1.923844930378D-01-7.847826893491D-09
   -1.535778257043D-11 1.000000000000D+00 1.790000000000D+03 0.000000000000D+00
    2.000000000000D+00 0.000000000000D+00-1.024454832077D-08 1.600000000000D+01
    5.184300000000D+05 4.000000000000D+00
18 14  5  3  2  0  0.0 3.168974071741D-04 2.273736754432D-12 0.000000000000D+00
    8.600000000000D+01-1.065625000000D+01 5.418439985489D-09-1.293134637734D+00
   -5.122274160385D-07 1.518506044522D-02 7.480382919312D-06 5.153683544159D+03
    5.256000000000D+05 3.054738044739D-07-1.627529249583D-01 3.054738044739D-07
    9.262283714838D-01 2.168437500000D+02-2.043959005703D+00-8.411778955786D-09
   -5.793098448660D-10 1.000000000000D+00 1.790000000000D+03 0.000000000000D+00
    2.000000000000D+00 0.000000000000D+00-1.117587089539D-08 8.600000000000D+01
    5.184300000000D+05 4.000000000000D+00
28 14  5  3  2  0  0.0 3.518327139318D-04 2.842170943040D-12 0.000000000000D+00
    1.900000000000D+02-9.900000000000D+01 3.894447933674D-09-2.055018429389D+00
   -4.898756742477D-06 1.913379388861D-02 6.083399057388D-06 5.153672658920D+03
    5.256000000000D+05 2.291053533554D-07 3.050976874507D+00 1.471489667892D-07
    9.867751655922D-01 2.672812500000D+02-1.715679079823D+00-7.581030066046D-09
   -1.607209803882D-11 1.000000000000D+00 1.790000000000D+03 0.000000000000D+00
    2.800000000000D+00 0.000000000000D+00-1.071020960808D-08 1.900000000000D+02
    5.191800000000D+05 4.000000000000D+00
11 14  5  3  1 59 44.0-4.857089370489D-04-3.183231456205D-12 0.000000000000D+00
    5.000000000000D+00 2.193750000000D+01 6.612775448641D-09 8.014487636722D-01
    1.274049282074D-06 1.489274052437D-02 7.232651114464D-06 5.153697200775D+03
    5.255840000000D+05-2.384185791016D-07-1.518905283953D+00 5.960464477539D-08
    8.900457392119D-01 2.066875000000D+02 1.279961901608D+00-9.252885419818D-09
    2.346526313668D-10 1.000000000000D+00 1.790000000000D+03 0.000000000000D+00
    2.000000000000D+00 0.000000000000D+00-1.210719347000D-08 5.000000000000D+00
    5.202000000000D+05 4.000000000000D+00
 3 14  5  3  1 59 44.0 3.596725873649D-04 5.002220859751D-12 0.000000000000D+00
    2.000000000000D+01-5.543750000000D+01 4.859845289206D-09 2.017723860881D+00
   -3.097578883171D-06 1.692045107484D-02 9.860843420029D-06 5.153794687271D+03
    5.255840000000D+05 1.452863216400D-07-2.400218158561D+00-3.501772880554D-07
    9.381976980314D-01 1.767500000000D+02 1.377850191711D+00-7.899614764949D-09
    2.503675716715D-10 1.000000000000D+00 1.790000000000D+03 0.000000000000D+00
    2.000000000000D+00 0.000000000000D+00-4.656612873077D-09 2.000000000000D+01
    5.211900000000D+05 4.000000000000D+00
